[{"OBJECT_NAME":"GLOBALSTAR M086","OBJECT_ID":"2011-080F","EPOCH":"2026-03-09T22:45:15.558336","MEAN_MOTION":12.62283911,"ECCENTRICITY":0.00012005,"INCLINATION":51.9888,"RA_OF_ASC_NODE":270.5949,"ARG_OF_PERICENTER":151.4075,"MEAN_ANOMALY":356.929,"EPHEMERIS_TYPE":0,"CLASSIFICATION_TYPE":"U","NORAD_CAT_ID":38045,"ELEMENT_SET_NO":999,"REV_AT_EPOCH":65712,"BSTAR":0.00020861954,"MEAN_MOTION_DOT":-6.6e-7,"MEAN_MOTION_DDOT":0},{"OBJECT_NAME":"COSMOS 2170","OBJECT_ID":"1991-077F","EPOCH":"2026-03-09T18:31:35.680800","MEAN_MOTION":12.62584453,"ECCENTRICITY":0.0002821,"INCLINATION":82.6133,"RA_OF_ASC_NODE":332.291,"ARG_OF_PERICENTER":137.9654,"MEAN_ANOMALY":277.5851,"EPHEMERIS_TYPE":0,"CLASSIFICATION_TYPE":"U","NORAD_CAT_ID":21784,"ELEMENT_SET_NO":999,"REV_AT_EPOCH":58153,"BSTAR":0.00011008841,"MEAN_MOTION_DOT":3.0e-7,"MEAN_MOTION_DDOT":0}]
